H1 CPF 01  gfz 2021 03 11 01  5701 tandemx   
H2 1003001  6202 36605    2021 03 11 00 59 42 2021 03 16 00 00 42   120 1 1  0 0 0
H9
10 0 59285  49662.000000  0    1961897.057   2091909.418   6252578.199
10 0 59285  49782.000000  0    1624211.322   1291639.870   6557777.375
10 0 59285  49902.000000  0    1244035.661    475110.586   6747724.779
10 0 59285  50022.000000  0     827854.503   -342741.000   6819103.212
10 0 59285  50142.000000  0     383037.130  -1147079.001   6770666.889
10 0 59285  50262.000000  0     -82293.126  -1923438.682   6603262.234
10 0 59285  50382.000000  0    -559407.409  -2657986.585   6319813.623
10 0 59285  50502.000000  0   -1039134.302  -3337767.903   5925273.989
10 0 59285  50622.000000  0   -1512033.233  -3950935.502   5426542.133
10 0 59285  50742.000000  0   -1968578.701  -4486959.692   4832350.212
10 0 59285  50862.000000  0   -2399353.012  -4936816.192   4153118.487
10 0 59285  50982.000000  0   -2795242.400  -5293147.027   3400776.764
10 0 59285  51102.000000  0   -3147630.351  -5550388.490   2588554.864
10 0 59285  51222.000000  0   -3448584.132  -5704863.490   1730748.530
10 0 59285  51342.000000  0   -3691031.080  -5754837.654    842464.041
10 0 59285  51462.000000  0   -3868920.029  -5700536.455    -60654.245
10 0 59285  51582.000000  0   -3977363.598  -5544123.036   -962707.478
10 0 59285  51702.000000  0   -4012757.371  -5289636.495  -1847831.735
10 0 59285  51822.000000  0   -3972872.643  -4942891.589  -2700485.665
10 0 59285  51942.000000  0   -3856920.506  -4511343.359  -3505729.562
10 0 59285  52062.000000  0   -3665585.794  -4003921.173  -4249489.485
10 0 59285  52182.000000  0   -3401031.361  -3430837.576  -4918801.523
10 0 59285  52302.000000  0   -3066873.161  -2803376.474  -5502032.793
10 0 59285  52422.000000  0   -2668127.244  -2133665.832  -5989075.055
10 0 59285  52542.000000  0   -2211130.497  -1434440.679  -6371509.895
10 0 59285  52662.000000  0   -1703435.847   -718800.088  -6642743.272
10 0 59285  52782.000000  0   -1153685.386        36.293  -6798107.026
10 0 59285  52902.000000  0    -571464.814    708967.120  -6834929.369
10 0 59285  53022.000000  0      32860.557   1395241.863  -6752576.099
10 0 59285  53142.000000  0     648324.920   2046683.752  -6552460.229
10 0 59285  53262.000000  0    1263555.925   2651901.289  -6238022.818
10 0 59285  53382.000000  0    1866980.845   3200485.216  -5814680.026
10 0 59285  53502.000000  0    2447040.120   3683187.466  -5289738.805
10 0 59285  53622.000000  0    2992406.242   4092078.828  -4672282.011
10 0 59285  53742.000000  0    3492204.429   4420684.798  -3973023.039
10 0 59285  53862.000000  0    3936231.154   4664095.349  -3204129.823
10 0 59285  53982.000000  0    4315166.108   4819045.428  -2379019.849
10 0 59285  54102.000000  0    4620770.812   4883963.273  -1512129.131
10 0 59285  54222.000000  0    4846071.043   4858986.946   -618660.081
10 0 59285  54342.000000  0    4985516.894   4745945.131    285690.007
10 0 59285  54462.000000  0    5035114.139   4548303.673   1185010.950
10 0 59285  54582.000000  0    4992526.865   4271080.423   2063466.585
10 0 59285  54702.000000  0    4857148.234   3920728.209   2905583.072
10 0 59285  54822.000000  0    4630134.103   3504987.889   3696530.631
10 0 59285  54942.000000  0    4314399.890   3032717.125   4422390.704
10 0 59285  55062.000000  0    3914583.093   2513699.498   5070403.362
10 0 59285  55182.000000  0    3436970.759   1958438.758   5629193.273
10 0 59285  55302.000000  0    2889392.910   1377942.876   6088966.005
10 0 59285  55422.000000  0    2281088.661    783502.693   6441674.052
10 0 59285  55542.000000  0    1622545.982    186471.273   6681150.375
10 0 59285  55662.000000  0     925318.318   -401951.504   6803211.550
10 0 59285  55782.000000  0     201819.951   -970929.146   6805727.590
10 0 59285  55902.000000  0    -534895.693  -1510187.993   6688655.984
10 0 59285  56022.000000  0   -1271371.429  -2010202.615   6454041.658
10 0 59285  56142.000000  0   -1993990.797  -2462363.893   6105981.828
10 0 59285  56262.000000  0   -2689227.475  -2859127.208   5650559.873
10 0 59285  56382.000000  0   -3343900.257  -3194141.714   5095747.661
10 0 59285  56502.000000  0   -3945428.274  -3462355.695   4451271.014
10 0 59285  56622.000000  0   -4482077.116  -3660095.101   3728442.618
10 0 59285  56742.000000  0   -4943192.818  -3785114.677   2939966.403
10 0 59285  56862.000000  0   -5319419.524  -3836620.961   2099715.722
10 0 59285  56982.000000  0   -5602895.718  -3815266.217   1222486.263
10 0 59285  57102.000000  0   -5787422.044  -3723111.469    323729.413
10 0 59285  57222.000000  0   -5868597.399  -3563560.406   -580727.495
10 0 59285  57342.000000  0   -5843919.605  -3341266.011  -1474969.246
10 0 59285  57462.000000  0   -5712846.403  -3062010.986  -2343282.829
10 0 59285  57582.000000  0   -5476815.893  -2732566.189  -3170439.986
10 0 59285  57702.000000  0   -5139228.006  -2360531.808  -3941968.033
10 0 59285  57822.000000  0   -4705387.398  -1954164.730  -4644403.089
10 0 59285  57942.000000  0   -4182410.265  -1522197.301  -5265521.725
10 0 59285  58062.000000  0   -3579097.290  -1073651.020  -5794547.209
10 0 59285  58182.000000  0   -2905776.490   -617649.680  -6222326.427
10 0 59285  58302.000000  0   -2174120.415   -163236.391  -6541476.740
10 0 59285  58422.000000  0   -1396940.415    280801.843  -6746501.731
10 0 59285  58542.000000  0    -587963.303    706098.789  -6833874.759
10 0 59285  58662.000000  0     238406.216   1104862.391  -6802092.825
10 0 59285  58782.000000  0    1067334.773   1470013.057  -6651699.593
10 0 59285  58902.000000  0    1883820.520   1795306.506  -6385279.746
10 0 59285  59022.000000  0    2672959.358   2075439.658  -6007419.192
10 0 59285  59142.000000  0    3420213.202   2306136.707  -5524633.793
10 0 59285  59262.000000  0    4111674.923   2484214.595  -4945267.526
10 0 59285  59382.000000  0    4734329.197   2607627.732  -4279360.625
10 0 59285  59502.000000  0    5276302.887   2675489.989  -3538485.532
10 0 59285  59622.000000  0    5727098.155   2688073.264  -2735554.080
10 0 59285  59742.000000  0    6077806.020   2646783.007  -1884599.051
10 0 59285  59862.000000  0    6321292.880   2554109.608  -1000529.205
10 0 59285  59982.000000  0    6452354.252   2413556.724    -98866.002
10 0 59285  60102.000000  0    6467832.201   2229547.739    804535.603
10 0 59285  60222.000000  0    6366690.685   2007312.234   1693772.575
10 0 59285  60342.000000  0    6150051.915   1752757.603   2553181.967
10 0 59285  60462.000000  0    5821187.107   1472325.668   3367626.498
10 0 59285  60582.000000  0    5385463.760   1172839.960   4122768.489
10 0 59285  60702.000000  0    4850249.880    861347.194   4805326.806
10 0 59285  60822.000000  0    4224781.035    544957.908   5403311.085
10 0 59285  60942.000000  0    3519991.364    230688.443   5906232.054
10 0 59285  61062.000000  0    2748312.163    -74690.816   6305280.735
10 0 59285  61182.000000  0    1923446.487   -364796.915   6593475.999
10 0 59285  61302.000000  0    1060122.087   -633764.676   6765781.753
10 0 59285  61422.000000  0     173825.068   -876363.644   6819190.513
10 0 59285  61542.000000  0    -719478.875  -1088098.547   6752771.407
10 0 59285  61662.000000  0   -1603631.323  -1265292.565   6567684.600
10 0 59285  61782.000000  0   -2462571.966  -1405151.069   6267161.233
10 0 59285  61902.000000  0   -3280628.417  -1505804.863   5856451.194
10 0 59285  62022.000000  0   -4042804.699  -1566333.945   5342739.394
10 0 59285  62142.000000  0   -4735061.638  -1586771.474   4735025.884
10 0 59285  62262.000000  0   -5344582.624  -1568086.229   4043972.895
10 0 59285  62382.000000  0   -5860018.682  -1512143.769   3281720.374
10 0 59285  62502.000000  0   -6271707.926  -1421647.393   2461674.703
10 0 59285  62622.000000  0   -6571867.145  -1300061.069   1598273.169
10 0 59285  62742.000000  0   -6754748.764  -1151515.053    706724.076
10 0 59285  62862.000000  0   -6816755.854   -980696.026   -197268.985
10 0 59285  62982.000000  0   -6756514.434   -792725.099  -1097792.585
10 0 59285  63102.000000  0   -6574900.533   -593026.831  -1979012.706
10 0 59285  63222.000000  0   -6275022.007   -387192.917  -2825459.888
10 0 59285  63342.000000  0   -5862157.613   -180844.686  -3622306.744
10 0 59285  63462.000000  0   -5343651.577     20504.116  -4355630.919
10 0 59285  63582.000000  0   -4728769.203    211579.488  -5012656.154
10 0 59285  63702.000000  0   -4028518.953    387471.441  -5581969.253
10 0 59285  63822.000000  0   -3255444.203    543746.829  -6053709.731
10 0 59285  63942.000000  0   -2423390.521    676548.733  -6419728.479
10 0 59285  64062.000000  0   -1547255.189    782681.230  -6673716.639
10 0 59285  64182.000000  0    -642720.618    859678.288  -6811303.961
10 0 59285  64302.000000  0     274021.843    905855.649  -6830124.238
10 0 59285  64422.000000  0    1186553.291    920344.499  -6729852.022
10 0 59285  64542.000000  0    2078514.925    903107.202  -6512210.211
10 0 59285  64662.000000  0    2933895.554    854934.931  -6180943.476
10 0 59285  64782.000000  0    3737314.629    777427.041  -5741759.973
10 0 59285  64902.000000  0    4474295.939    672951.703  -5202242.560
10 0 59285  65022.000000  0    5131530.184    544589.157  -4571729.883
10 0 59285  65142.000000  0    5697121.725    396058.445  -3861165.730
10 0 59285  65262.000000  0    6160812.588    231628.029  -3082918.233
10 0 59285  65382.000000  0    6514179.897     56012.705  -2250572.180
10 0 59285  65502.000000  0    6750802.787   -125741.733  -1378695.144
10 0 59285  65622.000000  0    6866391.129   -308383.007   -482580.958
10 0 59285  65742.000000  0    6858873.355   -486582.815    422022.397
10 0 59285  65862.000000  0    6728441.487   -655071.009   1319196.409
10 0 59285  65982.000000  0    6477550.377   -808769.305   2193140.662
10 0 59285  66102.000000  0    6110871.187   -942921.136   3028461.174
99
